INSAT-4A                
1 28911U 05049A   18271.74852111 -.00000172  00000-0  00000-0 0  9998
2 28911   0.0232 234.8872 0005022 354.4247 130.6728  1.00270872 17453
METEOSAT-9 (MSG-2)      
1 28912U 05049B   18272.28469576  .00000015  00000-0  00000+0 0  9992
2 28912   3.1253  71.5963 0000956  17.1900  25.3551  1.00264557 46828
EUTELSAT 172A (GE-23)   
1 28924U 05052A   18271.81606497  .00000004  00000-0  00000-0 0  9991
2 28924   0.0664  15.0418 0005998 175.5234 284.7660  1.00272412 24086
ECHOSTAR 10             
1 28935U 06003A   18272.22261422 -.00000062  00000-0  00000+0 0  9995
2 28935   0.0140 111.3657 0001731 105.2819 121.2463  1.00271661 46256
HIMAWARI-7 (MTSAT-2)    
1 28937U 06004A   18271.90162625 -.00000249  00000-0  00000-0 0  9995
2 28937   0.0511 283.6806 0003613 263.0770 290.5049  1.00272518 46228
SPAINSAT                
1 28945U 06007A   18271.06436995 -.00000222  00000-0  00000+0 0  9998
2 28945   0.0289 226.8548 0005666 330.2762 162.8776  1.00271368 45969
EUTELSAT HOT BIRD 13E   
1 28946U 06007B   18271.94259982  .00000080  00000-0  00000+0 0  9996
2 28946   0.0606 245.4833 0006938 308.9615 165.5637  1.00270432 46046
JCSAT-5A                
1 29045U 06010A   18271.87957264 -.00000334  00000-0  00000-0 0  9995
2 29045   0.0107 168.8035 0001955  32.4899 255.0282  1.00272970 45490
ASTRA 1KR               
1 29055U 06012A   18272.17957229  .00000113  00000-0  00000+0 0  9996
2 29055   0.0615 268.5127 0005024 301.7368 241.4931  1.00272011 45484
GOES 13                 
1 29155U 06018A   18272.14455915 -.00000290  00000-0  00000+0 0  9992
2 29155   0.0717 120.6730 0006643 298.7336 300.6873  1.00268734 45260
EUTELSAT 113 WEST A     
1 29162U 06020A   18271.29440655 -.00000044  00000-0  00000+0 0  9990
2 29162   0.0208  83.0995 0003038 114.5575 162.3603  1.00271795 45202
THAICOM 5               
1 29163U 06020B   18272.51499829 -.00000129  00000-0  00000+0 0  9998
2 29163   0.0126 221.1204 0005128   1.7879  49.2244  1.00273191 45279
GALAXY 16 (G-16)        
1 29236U 06023A   18271.61795240 -.00000133  00000-0  00000+0 0  9993
2 29236   0.0161 225.4055 0002775 320.0405 305.3713  1.00272280 45003
EUTELSAT HOT BIRD 13B   
1 29270U 06032A   18272.17904323  .00000080  00000-0  00000+0 0  9997
2 29270   0.1040 318.1428 0002511 252.0873 235.1227  1.00270886 44608
JCSAT-3A                
1 29272U 06033A   18271.91151226 -.00000351  00000-0  00000-0 0  9990
2 29272   0.0128 222.8592 0002380 331.3745 269.5668  1.00272967 19471
SYRACUSE 3B             
1 29273U 06033B   18272.17507451 -.00000051  00000-0  00000+0 0  9991
2 29273   0.0175 204.2223 0003552 349.5853 231.9048  1.00269461 44492
KOREASAT 5 (MUGUNGWHA 5)
1 29349U 06034A   18272.53521380 -.00000365  00000-0  00000+0 0  9991
2 29349   0.0095 157.2545 0001936  43.3683 113.3723  1.00272477 44387
DIRECTV 9S              
1 29494U 06043A   18271.62691118 -.00000120  00000-0  00000+0 0  9997
2 29494   0.0118 187.4441 0003157   7.6641 296.8559  1.00271907 43849
OPTUS D1                
1 29495U 06043B   18272.21779432 -.00000118  00000-0  00000+0 0  9997
2 29495   0.0186 175.6261 0003560  19.6505  51.0453  1.00269739 43882
XM-4 (BLUES)            
1 29520U 06049A   18272.20502362 -.00000030  00000-0  00000+0 0  9990
2 29520   0.0447 351.5174 0000287 253.1221  81.8280  1.00271797 43732
BADR-4                  
1 29526U 06051A   18272.50453000  .00000137  00000-0  00000+0 0  9993
2 29526   0.0494 351.6062 0002858 252.7383 331.5009  1.00272939 43639
FENGYUN 2D              
1 29640U 06053A   18272.43243764 -.00000366  00000-0  10000-3 0  9998
2 29640   5.3020  62.1115 0006329 299.1423 286.2416  1.00265935 43309
WILDBLUE-1              
1 29643U 06054A   18271.61568427 -.00000055  00000-0  00000+0 0  9997
2 29643   0.0108 164.9443 0002034  35.1284 277.7577  1.00271667 43287
AMC-18                  
1 29644U 06054B   18271.75369135  .00000098  00000-0  00000+0 0  9994
2 29644   0.0160 233.4696 0001967 266.9982 359.3525  1.00271202 43297
MEASAT-3                
1 29648U 06056A   18272.10049345 -.00000248  00000-0  00000+0 0  9996
2 29648   0.0476 129.9327 0003604  50.1914 315.3975  1.00270818 43292
INSAT-4B                
1 30793U 07007A   18272.53521380 -.00000362  00000-0  00000+0 0  9994
2 30793   0.0165 186.6350 0003784   1.3259 124.3008  1.00273897 42301
SKYNET 5A               
1 30794U 07007B   18272.10049345 -.00000278  00000-0  00000+0 0  9990
2 30794   0.0680  13.3624 0003231 165.5615 320.2639  1.00273876 42393
ANIK F3                 
1 31102U 07009A   18272.11667957 -.00000007  00000-0  00000+0 0  9992
2 31102   0.0126 241.6374 0001953 305.0934 104.4242  1.00266158 42076
ASTRA 1L                
1 31306U 07016A   18271.88521757  .00000113  00000-0  00000-0 0  9994
2 31306   0.0742 299.2417 0003263 297.8373 108.4092  1.00271666 16803
GALAXY 17 (G-17)        
1 31307U 07016B   18272.16140160 -.00000181  00000-0  00000+0 0  9997
2 31307   0.0113  57.1788 0003453 146.0850 131.7193  1.00270010 41816
ZHONGXING-6B            
1 31800U 07031A   18272.21062262 -.00000368  00000-0  00000+0 0  9991
2 31800   0.0237 264.9832 0003367 287.5446   6.7091  1.00275794 41211
DIRECTV 10              
1 31862U 07032A   18271.26622947 -.00000109  00000-0  00000-0 0  9990
2 31862   0.0521 343.2057 0000521 265.7056 111.1109  1.00272299 17366
SPACEWAY 3              
1 32018U 07036A   18272.14278486 -.00000158  00000-0  00000+0 0  9994
2 32018   0.0220   8.4193 0000424 225.0327  90.8679  1.00272213 40861
BSAT-3A                 
1 32019U 07036B   18271.67423690 -.00000357  00000-0  00000-0 0  9993
2 32019   0.0453 226.4173 0004892 346.5301 147.0504  1.00271297 22250
INSAT-4CR               
1 32050U 07037A   18272.17223022  .00000118  00000-0  00000+0 0  9995
2 32050   0.2238  98.6417 0004348 121.4809 257.6557  1.00270722 40592
OPTUS D2                
1 32252U 07044A   18271.88349825 -.00000190  00000-0  00000-0 0  9996
2 32252   0.0279 106.0167 0003809  86.2275 285.4355  1.00271198 40314
INTELSAT 11 (IS-11)     
1 32253U 07044B   18271.84459108 -.00000275  00000-0  00000-0 0  9993
2 32253   0.0138 232.1325 0001664 335.9013  60.6126  1.00272549 40340
STAR ONE C1             
1 32293U 07056A   18271.16144960 -.00000283  00000-0  00000+0 0  9990
2 32293   0.0266 109.2397 0002917  86.2211 164.5581  1.00273460 39842
SKYNET 5B               
1 32294U 07056B   18271.88521757  .00000135  00000-0  00000-0 0  9999
2 32294   0.0742  15.1439 0003913 174.9662 161.2622  1.00272377 39932
ASTRA 4A (SIRIUS 4)     
1 32299U 07057A   18272.14128007  .00000026  00000-0  00000+0 0  9994
2 32299   0.0296 291.8526 0003225 261.3971 230.2953  1.00272471 39705
HORIZONS-2              
1 32388U 07063B   18271.89632671 -.00000190  00000-0  00000-0 0  9992
2 32388   0.0153 239.4970 0002657 311.2107 224.4522  1.00272417 39595
THURAYA-3               
1 32404U 08001A   18271.87285549 -.00000309  00000-0  00000-0 0  9992
2 32404   3.8746 359.5172 0004926 185.9645 234.8582  1.00272132 39264
EXPRESS-AM33            
1 32478U 08003A   18271.94421439 -.00000287  00000-0  00000-0 0  9998
2 32478   0.0361 301.0857 0000841 288.9344 214.0648  1.00270499 39358
THOR 5                  
1 32487U 08006A   18272.14023324 -.00000016  00000-0  00000+0 0  9994
2 32487   0.0296 243.1426 0002515 313.9014 220.5535  1.00272005 38920
KIZUNA (WINDS)          
1 32500U 08007A   18272.52782194 -.00000265  00000-0  00000+0 0  9996
2 32500   1.8357  87.4922 0002111  99.5724 154.2020  1.00272132 38776
AMC-14                  
1 32708U 08011A   18271.56971098  .00000094  00000-0  00000+0 0  9996
2 32708  19.9372  56.0006 0035650   3.5265 170.8603  1.00272520 39837
DIRECTV 11              
1 32729U 08013A   18272.20307447 -.00000133  00000-0  00000+0 0  9999
2 32729   0.0324 339.3464 0000150 163.1398 199.3748  1.00271807 38674
ICO G1                  
1 32763U 08016A   18272.37341012 -.00000176  00000-0  00000+0 0  9991
2 32763   3.6801   1.6316 0002275 192.8361 215.2057  1.00272777 38213
VINASAT-1               
1 32767U 08018A   18271.61312053 -.00000335  00000-0  00000+0 0  9993
2 32767   0.0144 206.6692 0001722 358.4464 154.8760  1.00271077 38347
STAR ONE C2             
1 32768U 08018B   18271.17527154 -.00000271  00000-0  00000+0 0  9994
2 32768   0.0179 162.9919 0002818  16.3835 180.6528  1.00271460 38289
TIANLIAN 1-01           
1 32779U 08019A   18272.55182885 -.00000145  00000-0  10000-3 0  9993
2 32779   2.8037  73.9341 0032276 233.1511 339.8566  1.00274093 38213
AMOS-3                  
1 32794U 08022A   18272.35474610 -.00000042  00000-0  00000+0 0  9993
2 32794   0.0193 199.4611 0000982   1.0059 291.1926  1.00271992 38197
GALAXY 18 (G-18)        
1 32951U 08024A   18271.32212426  .00000019  00000-0  00000+0 0  9994
2 32951   0.0160 171.1147 0003236  23.2477 165.6563  1.00271427 37826
CHINASAT 9 (ZX 9)       
1 33051U 08028A   18271.87154694 -.00000255  00000-0  00000-0 0  9996
2 33051   0.0120 240.9837 0004226 296.9157 235.6960  1.00272287 37755
SKYNET 5C               
1 33055U 08030A   18272.46438312 -.00000147  00000-0  00000+0 0  9990
2 33055   0.0620 356.9557 0004357 195.8235 324.7483  1.00272898 37646
TURKSAT 3A              
1 33056U 08030B   18271.78980697  .00000140  00000-0  00000+0 0  9995
2 33056   0.0540  84.1317 0004283  81.9193 167.8212  1.00269145 37814
INTELSAT 25 (IS-25)     
1 33153U 08034A   18272.06584849 -.00000230  00000-0  00000+0 0  9999
2 33153   0.0099 184.2001 0002140  36.6750 139.1374  1.00272226 37386
BADR-6                  
1 33154U 08034B   18272.14555463  .00000138  00000-0  00000+0 0  9995
2 33154   0.0571  23.7802 0002641 142.4714 280.0376  1.00269616 37499
ECHOSTAR 11             
1 33207U 08035A   18271.28606806 -.00000063  00000-0  00000+0 0  9995
2 33207   0.0143 188.3195 0002775 357.0230 174.6826  1.00271487 37397
